{"type": "FeatureCollection", "source": "landmark list + MapBuilder frame", "crs_note": "WGS84 lon/lat (EPSG:4326)", "features": [{"type": "Feature", "properties": {"layer": "landmark", "name": "Ashley Furniture HQ campus", "type": "Factory / HQ", "confidence": "verified", "area": "Arcadia"}, "geometry": {"type": "Point", "coordinates": [-91.5074, 44.25135]}}, {"type": "Feature", "properties": {"layer": "landmark", "name": "Pilgrim's Pride poultry complex", "type": "Factory", "confidence": "verified", "area": "Arcadia"}, "geometry": {"type": "Point", "coordinates": [-91.5113, 44.25777]}}, {"type": "Feature", "properties": {"layer": "landmark", "name": "Soldiers Walk Memorial Park", "type": "Memorial park", "confidence": "verified", "area": "Arcadia"}, "geometry": {"type": "Point", "coordinates": [-91.49508, 44.24189]}}, {"type": "Feature", "properties": {"layer": "landmark", "name": "Arcadia High School", "type": "School", "confidence": "verified", "area": "Arcadia"}, "geometry": {"type": "Point", "coordinates": [-91.48743, 44.24193]}}, {"type": "Feature", "properties": {"layer": "landmark", "name": "Kwik Trip \u2014 1625 E Main St", "type": "Kwik Trip", "confidence": "verified", "area": "Arcadia"}, "geometry": {"type": "Point", "coordinates": [-91.47241, 44.25024]}}, {"type": "Feature", "properties": {"layer": "landmark", "name": "Downtown Arcadia (Main St)", "type": "Downtown strip", "confidence": "approximate", "area": "Arcadia"}, "geometry": {"type": "Point", "coordinates": [-91.50039, 44.25253]}}, {"type": "Feature", "properties": {"layer": "landmark", "name": "Trempealeau County Courthouse", "type": "Government", "confidence": "verified", "area": "Whitehall (county seat)"}, "geometry": {"type": "Point", "coordinates": [-91.31742, 44.36684]}}, {"type": "Feature", "properties": {"layer": "landmark", "name": "Whitehall Memorial High School", "type": "School", "confidence": "verified", "area": "Whitehall (county seat)"}, "geometry": {"type": "Point", "coordinates": [-91.33003, 44.36523]}}, {"type": "Feature", "properties": {"layer": "landmark", "name": "Kwik Trip \u2014 36281 Main St", "type": "Kwik Trip", "confidence": "verified", "area": "Whitehall (county seat)"}, "geometry": {"type": "Point", "coordinates": [-91.31747, 44.36769]}}, {"type": "Feature", "properties": {"layer": "landmark", "name": "Main Street downtown", "type": "Downtown strip", "confidence": "verified", "area": "Whitehall (county seat)"}, "geometry": {"type": "Point", "coordinates": [-91.31669, 44.36991]}}, {"type": "Feature", "properties": {"layer": "landmark", "name": "Whitehall water tower", "type": "Water tower", "confidence": "approximate", "area": "Whitehall (county seat)"}, "geometry": {"type": "Point", "coordinates": [-91.33209, 44.3668]}}, {"type": "Feature", "properties": {"layer": "landmark", "name": "Independence High School", "type": "School", "confidence": "verified", "area": "Independence"}, "geometry": {"type": "Point", "coordinates": [-91.42132, 44.36867]}}, {"type": "Feature", "properties": {"layer": "landmark", "name": "Main Street downtown", "type": "Downtown strip", "confidence": "approximate", "area": "Independence"}, "geometry": {"type": "Point", "coordinates": [-91.42134, 44.35666]}}, {"type": "Feature", "properties": {"layer": "landmark", "name": "Blair-Taylor High School", "type": "School", "confidence": "verified", "area": "Blair"}, "geometry": {"type": "Point", "coordinates": [-91.20978, 44.29146]}}, {"type": "Feature", "properties": {"layer": "landmark", "name": "Kwik Trip \u2014 511 W 4th St", "type": "Kwik Trip", "confidence": "verified", "area": "Blair"}, "geometry": {"type": "Point", "coordinates": [-91.24131, 44.29048]}}, {"type": "Feature", "properties": {"layer": "landmark", "name": "Blair Mill Dam & Lake Henry", "type": "Dam", "confidence": "verified", "area": "Blair"}, "geometry": {"type": "Point", "coordinates": [-91.23349, 44.29996]}}, {"type": "Feature", "properties": {"layer": "landmark", "name": "Main Street (S Main St)", "type": "Downtown strip", "confidence": "verified", "area": "Blair"}, "geometry": {"type": "Point", "coordinates": [-91.22886, 44.29237]}}, {"type": "Feature", "properties": {"layer": "landmark", "name": "Main Street", "type": "Downtown strip", "confidence": "approximate", "area": "Ettrick"}, "geometry": {"type": "Point", "coordinates": [-91.26859, 44.16945]}}, {"type": "Feature", "properties": {"layer": "landmark", "name": "Osseo-Fairchild High School", "type": "School", "confidence": "verified", "area": "Osseo"}, "geometry": {"type": "Point", "coordinates": [-91.21689, 44.5809]}}, {"type": "Feature", "properties": {"layer": "landmark", "name": "Kwik Trip \u2014 13907 10th St", "type": "Kwik Trip", "confidence": "verified", "area": "Osseo"}, "geometry": {"type": "Point", "coordinates": [-91.22418, 44.57917]}}, {"type": "Feature", "properties": {"layer": "landmark", "name": "Main Street downtown", "type": "Downtown strip", "confidence": "verified", "area": "Osseo"}, "geometry": {"type": "Point", "coordinates": [-91.22175, 44.5815]}}, {"type": "Feature", "properties": {"layer": "landmark", "name": "Osseo water tower", "type": "Water tower", "confidence": "approximate", "area": "Osseo"}, "geometry": {"type": "Point", "coordinates": [-91.23454, 44.6157]}}, {"type": "Feature", "properties": {"layer": "landmark", "name": "Lock and Dam No. 6", "type": "Dam", "confidence": "verified", "area": "Trempealeau (village)"}, "geometry": {"type": "Point", "coordinates": [-91.43833, 43.99972]}}, {"type": "Feature", "properties": {"layer": "landmark", "name": "Trempealeau Hotel", "type": "Historic building", "confidence": "verified", "area": "Trempealeau (village)"}, "geometry": {"type": "Point", "coordinates": [-91.44246, 44.00443]}}, {"type": "Feature", "properties": {"layer": "landmark", "name": "Main Street historic strip", "type": "Downtown strip", "confidence": "verified", "area": "Trempealeau (village)"}, "geometry": {"type": "Point", "coordinates": [-91.44251, 44.00491]}}, {"type": "Feature", "properties": {"layer": "landmark", "name": "Trempealeau County Fairgrounds", "type": "Fairgrounds", "confidence": "verified", "area": "Galesville"}, "geometry": {"type": "Point", "coordinates": [-91.34619, 44.0909]}}, {"type": "Feature", "properties": {"layer": "landmark", "name": "Gale-Ettrick-Trempealeau High School", "type": "School", "confidence": "verified", "area": "Galesville"}, "geometry": {"type": "Point", "coordinates": [-91.34217, 44.09283]}}, {"type": "Feature", "properties": {"layer": "landmark", "name": "Main Street (N Main St)", "type": "Downtown strip", "confidence": "verified", "area": "Galesville"}, "geometry": {"type": "Point", "coordinates": [-91.34504, 44.08941]}}, {"type": "Feature", "properties": {"layer": "landmark", "name": "Galesville water tower", "type": "Water tower", "confidence": "approximate", "area": "Galesville"}, "geometry": {"type": "Point", "coordinates": [-91.34202, 44.09026]}}, {"type": "Feature", "properties": {"layer": "landmark", "name": "Beaver Creek truss bridge", "type": "Bridge", "confidence": "verified", "area": "Galesville"}, "geometry": {"type": "Point", "coordinates": [-91.3613, 44.07598]}}, {"type": "Feature", "properties": {"layer": "landmark", "name": "Main Street", "type": "Downtown strip", "confidence": "approximate", "area": "Eleva"}, "geometry": {"type": "Point", "coordinates": [-91.46993, 44.57656]}}, {"type": "Feature", "properties": {"layer": "landmark", "name": "Eleva-Strum High School", "type": "School", "confidence": "verified", "area": "Strum"}, "geometry": {"type": "Point", "coordinates": [-91.41989, 44.56052]}}, {"type": "Feature", "properties": {"layer": "landmark", "name": "Main Street (US-10)", "type": "Downtown strip", "confidence": "approximate", "area": "Strum"}, "geometry": {"type": "Point", "coordinates": [-91.3926, 44.55036]}}, {"type": "Feature", "properties": {"layer": "landmark", "name": "Strum water tower", "type": "Water tower", "confidence": "approximate", "area": "Strum"}, "geometry": {"type": "Point", "coordinates": [-91.38664, 44.53303]}}, {"type": "Feature", "properties": {"layer": "landmark", "name": "Park entrance (Sullivan Rd)", "type": "Park", "confidence": "verified", "area": "Perrot State Park"}, "geometry": {"type": "Point", "coordinates": [-91.46318, 44.0117]}}, {"type": "Feature", "properties": {"layer": "landmark", "name": "Brady's Bluff overlook", "type": "Overlook", "confidence": "verified", "area": "Perrot State Park"}, "geometry": {"type": "Point", "coordinates": [-91.4833, 44.0202]}}, {"type": "Feature", "properties": {"layer": "landmark", "name": "Refuge headquarters (Refuge Rd)", "type": "Refuge HQ", "confidence": "verified", "area": "Trempealeau National Wildlife Refuge"}, "geometry": {"type": "Point", "coordinates": [-91.524, 44.04969]}}, {"type": "Feature", "properties": {"layer": "landmark", "name": "McGilvray Road (\"Seven Bridges Road\")", "type": "Historic bridges / trail", "confidence": "approximate", "area": "Trempealeau National Wildlife Refuge"}, "geometry": {"type": "Point", "coordinates": [-91.35082, 44.03858]}}, {"type": "Feature", "properties": {"layer": "player_start", "town": "Whitehall", "road": "Main Street"}, "geometry": {"type": "Point", "coordinates": [-91.3166943, 44.3699095]}}, {"type": "Feature", "properties": {"layer": "player_start", "town": "Arcadia", "road": "West Main Street"}, "geometry": {"type": "Point", "coordinates": [-91.5003887, 44.2525358]}}, {"type": "Feature", "properties": {"layer": "map_frame", "extent_m": [73152.0, 73152.0]}, "geometry": {"type": "Polygon", "coordinates": [[[-91.834375, 44.6346896], [-90.9125484, 44.6215576], [-90.9357425, 43.9633997], [-91.8473342, 43.9762353], [-91.834375, 44.6346896]]]}}]}